{"type":"FeatureCollection", "features": [
{"type":"Feature","geometry":{"type":"Polygon","coordinates":[[[32.0624,3.5801],[32.0575,3.5809],[32.0611,3.5845],[32.0577,3.5875],[32.0566,3.586],[32.0547,3.5875],[32.0533,3.5867],[32.0539,3.5909],[32.048,3.589],[32.0468,3.5867],[32.0449,3.5878],[32.0463,3.5915],[32.0447,3.5924],[32.0436,3.5892],[32.038,3.5848],[32.0367,3.5857],[32.0295,3.5831],[32.0199,3.5823],[32.0007,3.5768],[32.0004,3.5859],[31.9665,3.5852],[31.958,3.5865],[31.9577,3.5922],[31.9539,3.6049],[31.9527,3.6271],[31.9552,3.6353],[31.9615,3.646],[31.9613,3.6517],[31.9592,3.6569],[31.9504,3.6661],[31.9326,3.6966],[31.9161,3.7176],[31.9071,3.7345],[31.8978,3.7474],[31.882,3.7641],[31.8706,3.7821],[31.8425,3.801],[31.8252,3.8176],[31.8165,3.8214],[31.8055,3.8222],[31.7965,3.8193],[31.7968,3.8128],[31.8022,3.8097],[31.8038,3.8055],[31.8017,3.7992],[31.7833,3.7869],[31.7572,3.7665],[31.7412,3.7526],[31.7376,3.747],[31.7301,3.7524],[31.7296,3.7466],[31.7252,3.7338],[31.7228,3.7338],[31.7208,3.7294],[31.7175,3.7272],[31.7121,3.7165],[31.7083,3.7166],[31.7029,3.7109],[31.7023,3.7135],[31.7002,3.7145],[31.6948,3.7127],[31.6927,3.7078],[31.6917,3.7093],[31.6886,3.7072],[31.6799,3.7154],[31.6745,3.7144],[31.6566,3.7191],[31.6432,3.7288],[31.6377,3.7283],[31.6332,3.73],[31.6235,3.7294],[31.6212,3.7276],[31.6187,3.7278],[31.6182,3.7291],[31.6137,3.7261],[31.6129,3.7204],[31.6083,3.7178],[31.6077,3.7141],[31.6054,3.7129],[31.6046,3.7138],[31.6006,3.7099],[31.5977,3.7007],[31.59,3.6997],[31.5892,3.6981],[31.5809,3.6974],[31.5793,3.6949],[31.5775,3.6946],[31.5757,3.687],[31.5669,3.687],[31.5666,3.6842],[31.5613,3.6808],[31.5537,3.6804],[31.5501,3.6709],[31.5399,3.6645],[31.5384,3.6611],[31.5366,3.661],[31.5328,3.6558],[31.5309,3.6559],[31.5287,3.6511],[31.5266,3.6514],[31.5219,3.645],[31.5196,3.6457],[31.5159,3.6437],[31.516,3.6368],[31.5057,3.6388],[31.503,3.641],[31.5031,3.6487],[31.5091,3.6693],[31.5086,3.6742],[31.4897,3.6802],[31.4504,3.6991],[31.4153,3.7202],[31.3523,3.7507],[31.2908,3.7935],[31.2132,3.7948],[31.1842,3.7933],[31.1659,3.794],[31.153,3.7773],[31.1489,3.7763],[31.1434,3.7715],[31.1419,3.7719],[31.1357,3.7685],[31.1342,3.7649],[31.1293,3.7651],[31.1276,3.7622],[31.1226,3.7602],[31.1228,3.7572],[31.1206,3.7576],[31.1174,3.7529],[31.1145,3.7545],[31.1103,3.7528],[31.1081,3.7489],[31.105,3.7499],[31.1036,3.7459],[31.1004,3.7442],[31.1008,3.7417],[31.1054,3.7401],[31.1018,3.739],[31.1005,3.7359],[31.0944,3.7393],[31.093,3.7346],[31.0916,3.7344],[31.0888,3.7416],[31.0847,3.7394],[31.081,3.7426],[31.0761,3.7435],[31.0696,3.7426],[31.0659,3.7401],[31.0632,3.7375],[31.0631,3.7355],[31.0611,3.7359],[31.0589,3.7332],[31.0637,3.7296],[31.0636,3.7277],[31.0607,3.7251],[31.0618,3.7227],[31.0607,3.7192],[31.0549,3.7166],[31.0535,3.713],[31.0487,3.7127],[31.0305,3.6966],[31.0201,3.6931],[31.0168,3.7001],[31.0097,3.7033],[31.0084,3.7062],[31.0007,3.7087],[30.9889,3.7059],[30.9809,3.7014],[30.9729,3.692],[30.9686,3.6818],[30.9674,3.673],[30.9605,3.6714],[30.9559,3.6686],[30.9548,3.6659],[30.9556,3.664],[30.9523,3.6618],[30.9497,3.6539],[30.948,3.6534],[30.9467,3.6503],[30.9499,3.6404],[30.9493,3.6333],[30.9404,3.6264],[30.9392,3.619],[30.9311,3.6196],[30.9267,3.6158],[30.9269,3.6118],[30.9211,3.5994],[30.9172,3.5994],[30.9099,3.5951],[30.9083,3.5924],[30.9082,3.5871],[30.9053,3.5851],[30.9034,3.5746],[30.8877,3.5539],[30.8869,3.5479],[30.8831,3.539],[30.8816,3.5384],[30.8793,3.5258],[30.875,3.519],[30.8735,3.5113],[30.8705,3.507],[30.87,3.5021],[30.8644,3.4907],[30.8621,3.482],[30.8711,3.4797],[30.875,3.4805],[30.8772,3.4826],[30.8788,3.4816],[30.8805,3.4885],[30.8841,3.4925],[30.8894,3.4943],[30.8931,3.4991],[30.9032,3.5003],[30.9123,3.5056],[30.9303,3.5051],[30.9375,3.5062],[30.9407,3.4993],[30.9383,3.4931],[30.9424,3.4802],[30.9437,3.4667],[30.9426,3.4631],[30.9374,3.4598],[30.9379,3.4551],[30.9358,3.4419],[30.9384,3.423],[30.9386,3.4013],[30.926,3.3895],[30.9196,3.3862],[30.9178,3.3808],[30.9187,3.3701],[30.9124,3.3658],[30.9106,3.3596],[30.9036,3.3575],[30.8951,3.3428],[30.8882,3.3385],[30.8885,3.3356],[30.8914,3.3323],[30.8916,3.3286],[30.8881,3.3255],[30.891,3.3217],[30.8935,3.3116],[30.8883,3.3136],[30.8829,3.3063],[30.8787,3.3054],[30.8757,3.3028],[30.8747,3.2986],[30.8763,3.2919],[30.8694,3.287],[30.8672,3.2833],[30.8714,3.2778],[30.8659,3.2735],[30.857,3.2722],[30.8466,3.267],[30.8427,3.2671],[30.839,3.2606],[30.8369,3.2484],[30.8421,3.2401],[30.8418,3.2364],[30.8367,3.2331],[30.8304,3.2244],[30.8274,3.215],[30.8304,3.2015],[30.8248,3.1943],[30.8222,3.1858],[30.8155,3.174],[30.8104,3.1588],[30.809,3.145],[30.8098,3.1397],[30.803,3.1332],[30.8067,3.1325],[30.8029,3.1332],[30.8029,3.1243],[30.8005,3.1192],[30.8002,3.1017],[30.7942,3.0927],[30.7938,3.0728],[30.7951,3.0666],[30.7912,3.0609],[30.7859,3.0612],[30.7769,3.058],[30.7687,3.0494],[30.7699,3.0428],[30.7752,3.039],[30.7787,3.0341],[30.7784,3.0247],[30.7808,3.0209],[30.785,3.0177],[30.7925,3.0149],[30.8029,3.0044],[30.8093,3.0028],[30.8177,3.0058],[30.8248,3.0005],[30.8264,2.9962],[30.8247,2.9889],[30.8262,2.9862],[30.8332,2.9813],[30.839,2.9712],[30.8587,2.9592],[30.8568,2.9515],[30.8541,2.9488],[30.8552,2.9385],[30.8614,2.9312],[30.8582,2.9258],[30.8636,2.9235],[30.8676,2.9196],[30.8656,2.9159],[30.8661,2.9121],[30.8672,2.9093],[30.8706,2.908],[30.87,2.9014],[30.8756,2.8993],[30.8751,2.8885],[30.8847,2.8826],[30.8887,2.8759],[30.888,2.8686],[30.8909,2.8558],[30.8881,2.8513],[30.8886,2.8478],[30.8847,2.8354],[30.8864,2.8301],[30.8858,2.8147],[30.8849,2.8117],[30.8683,2.7916],[30.8667,2.7855],[30.8626,2.7823],[30.86,2.7711],[30.8549,2.7684],[30.8479,2.7672],[30.847,2.7635],[30.8449,2.7625],[30.8421,2.7656],[30.8381,2.7646],[30.8365,2.7627],[30.8367,2.7543],[30.8324,2.7497],[30.8235,2.7473],[30.8228,2.7349],[30.8273,2.7267],[30.8241,2.7246],[30.8226,2.7173],[30.8198,2.7168],[30.8193,2.7142],[30.8143,2.7128],[30.8146,2.7108],[30.809,2.7062],[30.8101,2.7048],[30.8079,2.7013],[30.8112,2.6962],[30.8114,2.6924],[30.8073,2.687],[30.8085,2.6826],[30.8049,2.6786],[30.8057,2.6754],[30.7981,2.6687],[30.7996,2.6629],[30.7976,2.6601],[30.7985,2.6579],[30.7936,2.6507],[30.7926,2.6451],[30.7871,2.6431],[30.7878,2.6345],[30.7916,2.6319],[30.7809,2.6141],[30.7815,2.6112],[30.7795,2.608],[30.7802,2.6031],[30.7779,2.5996],[30.7733,2.5995],[30.7721,2.5956],[30.7676,2.5959],[30.7613,2.5937],[30.7579,2.5885],[30.754,2.5881],[30.7508,2.5834],[30.7547,2.5761],[30.7535,2.5695],[30.7583,2.562],[30.7565,2.554],[30.7596,2.5475],[30.7572,2.5381],[30.7602,2.5149],[30.7625,2.5072],[30.7593,2.4949],[30.7519,2.4941],[30.7471,2.4884],[30.7468,2.4783],[30.7441,2.4692],[30.7451,2.4584],[30.7411,2.4528],[30.7416,2.4473],[30.7492,2.4382],[30.7524,2.4168],[30.7554,2.4201],[30.7559,2.4237],[30.7627,2.4253],[30.7656,2.4284],[30.7711,2.4281],[30.7725,2.4309],[30.7793,2.4359],[30.7842,2.4314],[30.7896,2.4323],[30.7982,2.4241],[30.8064,2.422],[30.8158,2.4232],[30.8196,2.4212],[30.8236,2.4211],[30.8276,2.4217],[30.8307,2.424],[30.8349,2.4239],[30.8352,2.4174],[30.8332,2.4143],[30.8383,2.412],[30.8403,2.4066],[30.8386,2.4011],[30.8417,2.4013],[30.8464,2.3944],[30.8455,2.3907],[30.849,2.3814],[30.8545,2.3789],[30.8564,2.3744],[30.8652,2.3733],[30.8656,2.3682],[30.8669,2.3671],[30.8734,2.3661],[30.8743,2.3629],[30.877,2.3611],[30.8758,2.3565],[30.8766,2.3519],[30.8817,2.3441],[30.8826,2.3379],[30.8877,2.3382],[30.8897,2.3362],[30.892,2.3373],[30.9056,2.3294],[30.9118,2.329],[30.9132,2.3387],[30.9255,2.3364],[30.9297,2.3322],[30.9346,2.3322],[30.9425,2.3408],[30.9472,2.3572],[30.9501,2.3592],[30.9496,2.3625],[30.9429,2.3641],[30.9442,2.3687],[30.9425,2.3715],[30.9456,2.3786],[30.9501,2.384],[30.9489,2.3899],[30.953,2.3935],[30.955,2.3975],[30.9603,2.3943],[30.9666,2.4007],[30.9693,2.3998],[30.9812,2.4044],[30.9848,2.4027],[30.9906,2.4033],[30.9966,2.4014],[31.0034,2.3957],[31.0084,2.398],[31.0111,2.3953],[31.0129,2.387],[31.0214,2.3852],[31.0219,2.3821],[31.0236,2.3836],[31.0257,2.3817],[31.0273,2.3841],[31.0275,2.3813],[31.0292,2.3803],[31.0285,2.3778],[31.0371,2.37],[31.0737,2.3435],[31.0692,2.336],[31.0701,2.3306],[31.0727,2.3271],[31.0737,2.3213],[31.0764,2.3211],[31.0767,2.3176],[31.0789,2.3174],[31.0793,2.315],[31.0857,2.3082],[31.0789,2.3016],[31.0749,2.3016],[31.074,2.3038],[31.07,2.3025],[31.076,2.2993],[31.0765,2.2956],[31.081,2.2941],[31.0835,2.2951],[31.0835,2.2932],[31.0886,2.2862],[31.0957,2.2857],[31.0979,2.2792],[31.1085,2.2753],[31.1135,2.2702],[31.1164,2.2707],[31.1177,2.2695],[31.1195,2.2711],[31.1256,2.2637],[31.1314,2.2618],[31.1335,2.2627],[31.1338,2.2685],[31.1362,2.2678],[31.1375,2.274],[31.1395,2.2779],[31.1423,2.279],[31.1418,2.2807],[31.1502,2.2805],[31.1509,2.2784],[31.1534,2.2774],[31.1566,2.279],[31.1585,2.2772],[31.1603,2.2783],[31.1626,2.2754],[31.1647,2.2753],[31.1728,2.2782],[31.1729,2.2801],[31.1756,2.2824],[31.1769,2.281],[31.183,2.2836],[31.1853,2.2832],[31.1875,2.2861],[31.1998,2.2881],[31.2004,2.29],[31.2027,2.29],[31.2037,2.2916],[31.2038,2.2182],[31.2483,2.1975],[31.3064,2.1542],[31.3063,2.1136],[31.2956,2.1016],[31.2354,2.0162],[31.1957,1.9656],[31.1,1.8519],[31.108,1.8497],[31.1035,1.8509],[30.9871,1.7225],[30.78790021565714,1.547000189733526],[30.7784,1.547],[30.758,1.5306],[30.6259,1.3933],[30.5209,1.2733],[30.5096,1.2502],[30.4762,1.2099],[30.473,1.2117],[30.4705,1.211],[30.4646,1.2075],[30.4597,1.2014],[30.4535,1.1991],[30.4433,1.2018],[30.4382,1.1978],[30.433,1.1979],[30.4271,1.1948],[30.422,1.1905],[30.4195,1.1911],[30.4177,1.196],[30.4137,1.198],[30.4075,1.1965],[30.4063,1.1935],[30.4,1.1895],[30.3961,1.191],[30.3907,1.1877],[30.3845,1.1928],[30.3774,1.1928],[30.3704,1.2001],[30.3607,1.2024],[30.3554,1.1934],[30.3479,1.1866],[30.3479,1.1833],[30.342,1.1769],[30.3397,1.1695],[30.3414,1.1639],[30.3393,1.1603],[30.3395,1.1552],[30.3371,1.1515],[30.3279,1.1517],[30.3256,1.1564],[30.3235,1.1571],[30.3217,1.1568],[30.3196,1.1538],[30.3141,1.1525],[30.3123,1.1537],[30.3124,1.1596],[30.3086,1.164],[30.3092,1.1676],[30.3002,1.1644],[30.2962,1.1681],[30.2948,1.172],[30.2902,1.1731],[30.2878,1.1688],[30.283,1.1657],[30.2747,1.1666],[30.2734,1.1629],[30.2691,1.1619],[30.269,1.1533],[30.2645,1.1516],[30.2617,1.1458],[30.2573,1.146],[30.2571,1.1433],[30.2547,1.1447],[30.2478,1.1428],[30.2379,1.1347],[30.2346,1.1256],[30.24,1.1145],[30.241,1.1072],[30.2394,1.1004],[30.2406,1.0976],[30.2383,1.0947],[30.2383,1.0913],[30.2357,1.0914],[30.2322,1.088],[30.2324,1.0845],[30.2314,1.0837],[30.23,1.0858],[30.2287,1.0853],[30.2297,1.0816],[30.2276,1.078],[30.2307,1.0737],[30.2259,1.0716],[30.2298,1.0683],[30.2251,1.0654],[30.2256,1.0595],[30.2285,1.0564],[30.2228,1.0543],[30.2241,1.0504],[30.2218,1.0452],[30.2275,1.0448],[30.2292,1.043],[30.2276,1.0398],[30.2229,1.0385],[30.2211,1.0359],[30.2231,1.0331],[30.2252,1.0373],[30.2274,1.0361],[30.2272,1.0277],[30.2263,1.0268],[30.2235,1.0286],[30.2246,1.0233],[30.2202,1.0157],[30.2211,1.0149],[30.225,1.0168],[30.2248,1.0139],[30.2276,1.0113],[30.2238,1.007],[30.2232,1.0034],[30.2307,1.0032],[30.2316,1.0019],[30.2305,1.0003],[30.2248,0.9992],[30.2239,0.9937],[30.2279,0.9903],[30.225,0.9866],[30.223,0.9902],[30.2212,0.9903],[30.2195,0.9846],[30.2172,0.9876],[30.2148,0.9874],[30.2157,0.9836],[30.2103,0.9804],[30.2105,0.9789],[30.2156,0.9767],[30.2146,0.9747],[30.2066,0.974],[30.2016,0.977],[30.2021,0.9674],[30.2002,0.9645],[30.198,0.9638],[30.1986,0.9673],[30.1941,0.9707],[30.1917,0.9708],[30.1912,0.9693],[30.1942,0.9661],[30.1944,0.9639],[30.1857,0.9625],[30.1859,0.9607],[30.1911,0.9602],[30.192,0.956],[30.1857,0.9575],[30.1898,0.951],[30.1886,0.9486],[30.1863,0.9491],[30.1831,0.9532],[30.1809,0.9532],[30.1801,0.9515],[30.1832,0.946],[30.1825,0.944],[30.1773,0.9465],[30.1746,0.9459],[30.1775,0.9434],[30.1747,0.9405],[30.176,0.938],[30.174,0.9368],[30.1732,0.929],[30.1709,0.9251],[30.1772,0.9222],[30.1745,0.9211],[30.1701,0.9221],[30.1689,0.9205],[30.1735,0.9161],[30.1732,0.9111],[30.1715,0.9106],[30.1707,0.9143],[30.1686,0.9139],[30.1707,0.9073],[30.1685,0.9062],[30.1652,0.9101],[30.1623,0.9103],[30.1652,0.9047],[30.1634,0.9003],[30.1616,0.9],[30.1598,0.9026],[30.1589,0.8987],[30.1559,0.9001],[30.1538,0.8968],[30.149,0.8972],[30.1537,0.8949],[30.1525,0.8906],[30.1563,0.8865],[30.1557,0.8849],[30.1455,0.8877],[30.1436,0.8839],[30.1419,0.8873],[30.1404,0.8876],[30.1398,0.8827],[30.138,0.8823],[30.1333,0.8845],[30.1343,0.8894],[30.1325,0.8913],[30.1304,0.8911],[30.1262,0.8871],[30.1253,0.8887],[30.1267,0.892],[30.1255,0.8935],[30.1218,0.891],[30.1165,0.8945],[30.1146,0.8935],[30.1162,0.8877],[30.1108,0.8856],[30.1119,0.8905],[30.1111,0.8941],[30.1094,0.8939],[30.1082,0.8913],[30.1038,0.8929],[30.1027,0.8921],[30.103,0.8882],[30.0995,0.8901],[30.0976,0.8893],[30.0962,0.8834],[30.0928,0.8832],[30.0898,0.8875],[30.0885,0.8867],[30.0878,0.8812],[30.0829,0.8809],[30.0792,0.8782],[30.0773,0.8823],[30.0752,0.8821],[30.0724,0.8786],[30.0703,0.8819],[30.0694,0.8813],[30.0675,0.878],[30.0641,0.8766],[30.0641,0.8735],[30.0606,0.8675],[30.0619,0.8636],[30.0595,0.8625],[30.0581,0.864],[30.0587,0.871],[30.0569,0.872],[30.0546,0.8681],[30.0524,0.8674],[30.0497,0.8693],[30.0487,0.873],[30.0447,0.87],[30.044,0.8669],[30.0416,0.8672],[30.0383,0.8641],[30.0332,0.8661],[30.034,0.8612],[30.0317,0.8593],[30.0275,0.8647],[30.0235,0.8644],[30.0233,0.8622],[30.0274,0.8584],[30.0277,0.8555],[30.0171,0.8571],[30.0146,0.8563],[30.0132,0.8538],[30.0139,0.8488],[30.0116,0.8472],[30.0104,0.8479],[30.0116,0.8533],[30.01,0.8544],[30.005,0.8534],[30.0036,0.8502],[30.0003,0.8497],[30.0007,0.8453],[29.9918,0.8476],[29.9855,0.847],[29.9903,0.8368],[29.9847,0.8381],[29.9848,0.8361],[29.9831,0.8358],[29.984,0.8348],[29.9826,0.8299],[29.9791,0.8289],[29.9737,0.8157],[29.9723,0.8161],[29.9702,0.8131],[29.9713,0.8115],[29.9701,0.7998],[29.9672,0.7969],[29.9696,0.795],[29.9676,0.7937],[29.9679,0.7915],[29.9669,0.7922],[29.9658,0.7904],[29.9675,0.7888],[29.9672,0.7868],[29.9651,0.786],[29.9665,0.7848],[29.9651,0.7827],[29.9659,0.782],[29.9623,0.7791],[29.9621,0.7745],[29.9639,0.7753],[29.9653,0.7717],[29.9642,0.7714],[29.9639,0.7674],[29.966,0.7667],[29.9668,0.7639],[29.9653,0.7598],[29.9688,0.7591],[29.968,0.7583],[29.9693,0.7559],[29.972,0.7536],[29.9705,0.7516],[29.9714,0.7495],[29.9726,0.7474],[29.9748,0.7471],[29.9759,0.743],[29.9727,0.7294],[29.974,0.729],[29.9711,0.7277],[29.9714,0.7249],[29.9689,0.7243],[29.9687,0.7228],[29.97,0.7225],[29.9694,0.7194],[29.9681,0.7191],[29.9691,0.7162],[29.9676,0.7162],[29.9669,0.7142],[29.9682,0.714],[29.9683,0.7123],[29.9698,0.7126],[29.9703,0.7094],[29.9717,0.7089],[29.9715,0.7046],[29.9687,0.7017],[29.9718,0.6973],[29.9714,0.6929],[29.9692,0.6879],[29.9677,0.6873],[29.9666,0.6821],[29.9637,0.6823],[29.9636,0.6802],[29.9621,0.6797],[29.9633,0.6739],[29.9613,0.6706],[29.9619,0.6655],[29.9567,0.6534],[29.9577,0.6509],[29.9551,0.6413],[29.9555,0.6328],[29.9631,0.6186],[29.9624,0.6157],[29.9653,0.6137],[29.9725,0.5991],[29.9715,0.593],[29.97,0.5914],[29.9714,0.5849],[29.9681,0.579],[29.9682,0.5745],[29.972,0.5702],[29.9719,0.5679],[29.9704,0.5679],[29.9696,0.5658],[29.9732,0.5604],[29.9769,0.5635],[29.9776,0.5582],[29.9812,0.5571],[29.979,0.5522],[29.9798,0.5494],[29.9786,0.544],[29.9754,0.5437],[29.9751,0.5419],[29.9753,0.5363],[29.98,0.5314],[29.9771,0.5281],[29.9776,0.5206],[29.9795,0.52],[29.9794,0.5169],[29.9578,0.4922],[29.8726,0.3852],[29.8236,0.172],[29.8199,0.1663],[29.8153,0.1631],[29.8094,0.1649],[29.8079,0.1641],[29.8062,0.1652],[29.8054,0.1641],[29.7992,0.1667],[29.7989,0.168],[29.7938,0.1673],[29.7894,0.1695],[29.7848,0.1653],[29.7809,0.1679],[29.7766,0.1667],[29.7732,0.1627],[29.771,0.1642],[29.7693,0.1634],[29.7705,0.1559],[29.7673,0.1482],[29.756,0.1396],[29.7508,0.1344],[29.7499,0.1315],[29.7447,0.1312],[29.7428,0.1263],[29.7416,0.1273],[29.7396,0.1254],[29.7359,0.1251],[29.7366,0.1216],[29.7386,0.1215],[29.7377,0.1201],[29.7399,0.12],[29.7372,0.1187],[29.7375,0.113],[29.736,0.1129],[29.7341,0.1093],[29.7339,0.1029],[29.7353,0.1016],[29.7337,0.0916],[29.7351,0.0888],[29.7328,0.0881],[29.7331,0.0843],[29.7299,0.0799],[29.7234,0.0783],[29.7232,0.0764],[29.721,0.0754],[29.7179,0.0756],[29.7172,0.0736],[29.7185,0.0727],[29.7179,0.0677],[29.7213,0.0628],[29.7191,0.0613],[29.7205,0.0592],[29.7166,0.0535],[29.7194,0.0491],[29.7198,0.0411],[29.7158,0.0348],[29.7194,0.0303],[29.7216,0.0309],[29.7215,0.0283],[29.7196,0.0266],[29.721,0.0265],[29.7211,0.0215],[29.7281,0.0171],[29.723,0.0114],[29.7288,0.0074],[29.7269,0.0048],[29.7279,0.0014],[29.7254,-0.0005],[29.7268,-0.0012],[29.7252,-0.0019],[29.7254,-0.0038],[29.7292,-0.0046],[29.7312,-0.0109],[29.7324,-0.0105],[29.7329,-0.0124],[29.7319,-0.012],[29.7313,-0.0145],[29.7331,-0.0171],[29.7323,-0.021],[29.7357,-0.0235],[29.7365,-0.0226],[29.7376,-0.0239],[29.7384,-0.0223],[29.7413,-0.0232],[29.7417,-0.0259],[29.743,-0.0259],[29.7444,-0.0287],[29.7443,-0.0298],[29.7426,-0.0287],[29.7407,-0.031],[29.742,-0.0322],[29.7394,-0.0357],[29.7383,-0.0351],[29.7382,-0.0377],[29.7322,-0.0367],[29.7306,-0.0407],[29.728,-0.0409],[29.7303,-0.0442],[29.7305,-0.0489],[29.729,-0.0522],[29.7298,-0.0568],[29.7266,-0.0583],[29.7249,-0.0684],[29.7264,-0.0702],[29.7268,-0.0774],[29.7287,-0.0793],[29.6994,-0.2104],[29.6623,-0.4115],[29.6514,-0.4632],[29.6546,-0.4695],[29.6564,-0.4682],[29.6617,-0.4722],[29.6652,-0.4711],[29.6687,-0.4743],[29.671,-0.4745],[29.6709,-0.4822],[29.6741,-0.4859],[29.675,-0.4898],[29.674,-0.4913],[29.6764,-0.4942],[29.6748,-0.4943],[29.6681,-0.5013],[29.672,-0.505],[29.671,-0.5174],[29.6739,-0.5224],[29.671,-0.5267],[29.6732,-0.5379],[29.6713,-0.5384],[29.6687,-0.5433],[29.667,-0.5438],[29.6683,-0.5484],[29.6702,-0.5489],[29.669,-0.5558],[29.6701,-0.5573],[29.6733,-0.5551],[29.6766,-0.5557],[29.678,-0.5566],[29.6773,-0.5605],[29.6814,-0.5608],[29.6811,-0.5634],[29.6832,-0.5633],[29.6814,-0.5645],[29.683,-0.5657],[29.6808,-0.5658],[29.6819,-0.5676],[29.6791,-0.5737],[29.6775,-0.5732],[29.6753,-0.5787],[29.6731,-0.5791],[29.6734,-0.5812],[29.6716,-0.5831],[29.6728,-0.5848],[29.6707,-0.5853],[29.6723,-0.5863],[29.6703,-0.5866],[29.6689,-0.5913],[29.6619,-0.594],[29.6625,-0.5959],[29.6595,-0.594],[29.6601,-0.5961],[29.6583,-0.5947],[29.6572,-0.5967],[29.6558,-0.5953],[29.6524,-0.5967],[29.6493,-0.5954],[29.6493,-0.5982],[29.6515,-0.5989],[29.6509,-0.6008],[29.6527,-0.6018],[29.6523,-0.6059],[29.6541,-0.6053],[29.656,-0.6097],[29.6556,-0.6134],[29.6575,-0.6194],[29.6632,-0.6244],[29.66,-0.6301],[29.6574,-0.6313],[29.6576,-0.6332],[29.6536,-0.638],[29.6541,-0.6396],[29.6511,-0.6411],[29.6507,-0.6478],[29.6487,-0.6491],[29.6512,-0.6524],[29.6509,-0.6571],[29.6483,-0.659],[29.648,-0.6622],[29.646,-0.6613],[29.6445,-0.6635],[29.6407,-0.6732],[29.6356,-0.6755],[29.6352,-0.678],[29.6375,-0.6782],[29.6363,-0.6799],[29.6369,-0.6836],[29.6345,-0.6842],[29.6346,-0.6871],[29.6365,-0.6873],[29.6337,-0.6906],[29.6346,-0.6944],[29.6324,-0.6949],[29.6322,-0.7002],[29.63,-0.7021],[29.6274,-0.7012],[29.6277,-0.7042],[29.6258,-0.7055],[29.6263,-0.7151],[29.6276,-0.7164],[29.6246,-0.7186],[29.6257,-0.7198],[29.6246,-0.724],[29.6295,-0.7286],[29.6307,-0.7327],[29.6279,-0.736],[29.6292,-0.7406],[29.6313,-0.7416],[29.6295,-0.7424],[29.6309,-0.7447],[29.6308,-0.7492],[29.6284,-0.7519],[29.6297,-0.7557],[29.6284,-0.757],[29.6298,-0.7588],[29.6289,-0.7608],[29.63,-0.7616],[29.6289,-0.7631],[29.6309,-0.7651],[29.6299,-0.7699],[29.631,-0.7716],[29.6291,-0.7739],[29.6298,-0.7764],[29.6282,-0.7758],[29.6267,-0.7773],[29.6292,-0.7823],[29.6276,-0.7855],[29.6293,-0.7856],[29.6294,-0.7877],[29.6271,-0.7883],[29.6279,-0.7893],[29.6256,-0.7926],[29.6274,-0.795],[29.6288,-0.7945],[29.6324,-0.7968],[29.6327,-0.8013],[29.63,-0.8058],[29.6347,-0.8111],[29.6342,-0.8135],[29.6358,-0.8162],[29.6384,-0.8166],[29.6374,-0.8181],[29.638,-0.8211],[29.6398,-0.8214],[29.6389,-0.8247],[29.6401,-0.8298],[29.6382,-0.8307],[29.6394,-0.8345],[29.6365,-0.8348],[29.6299,-0.8472],[29.6261,-0.8619],[29.6276,-0.8682],[29.6268,-0.8722],[29.6301,-0.8819],[29.6282,-0.885],[29.6322,-0.8905],[29.6342,-0.8967],[29.6373,-0.8999],[29.5881,-0.9],[29.5832,-0.902],[29.5814,-0.9049],[29.5821,-0.9189],[29.5837,-0.9211],[29.5892,-0.9232],[29.5927,-0.9322],[29.5864,-0.9423],[29.5899,-0.9456],[29.5895,-0.9499],[29.5925,-0.9589],[29.5927,-0.9646],[29.5943,-0.9666],[29.5928,-0.9728],[29.5947,-0.9766],[29.601,-0.9801],[29.597,-0.987],[29.5937,-0.9865],[29.5896,-0.9801],[29.5854,-0.9818],[29.589,-0.9909],[29.5847,-1.002],[29.5824,-1.02],[29.5897,-1.0529],[29.582,-1.1046],[29.5779,-1.1105],[29.5785,-1.1136],[29.5803,-1.1148],[29.5802,-1.118],[29.5768,-1.1241],[29.5772,-1.1275],[29.5757,-1.1286],[29.5797,-1.1476],[29.5822,-1.1494],[29.5853,-1.1555],[29.5787,-1.1646],[29.5786,-1.1685],[29.5768,-1.1705],[29.58,-1.176],[29.5792,-1.1795],[29.5765,-1.1842],[29.5734,-1.1842],[29.5722,-1.1862],[29.573,-1.1906],[29.5823,-1.1985],[29.5842,-1.2041],[29.5899,-1.207],[29.5943,-1.2124],[29.6049,-1.2179],[29.6074,-1.2217],[29.6026,-1.2247],[29.6066,-1.2327],[29.6048,-1.2361],[29.6042,-1.2442],[29.6013,-1.2451],[29.5992,-1.2492],[29.5956,-1.2505],[29.5922,-1.2704],[29.5984,-1.3017],[29.6018,-1.3048],[29.6063,-1.3175],[29.5896,-1.3883],[29.5953,-1.3867],[29.6085,-1.3878],[29.6151,-1.3863],[29.6377,-1.3884],[29.6442,-1.3831],[29.646,-1.3844],[29.6529,-1.3842],[29.6755,-1.382],[29.6807,-1.3778],[29.688,-1.367],[29.6892,-1.3614],[29.6985,-1.3579],[29.6998,-1.355],[29.7081,-1.3503],[29.7108,-1.3444],[29.7278,-1.3402],[29.7442,-1.3411],[29.7557,-1.3447],[29.7649,-1.3518],[29.7743,-1.3656],[29.783,-1.3673],[29.7949,-1.3722],[29.7933,-1.3636],[29.7948,-1.3587],[29.7946,-1.3492],[29.8033,-1.3387],[29.8038,-1.3348],[29.807,-1.3299],[29.8135,-1.3274],[29.8177,-1.3274],[29.8192,-1.3162],[29.8175,-1.3145],[29.8192,-1.3105],[29.8225,-1.3079],[29.8271,-1.3135],[29.8318,-1.3141],[29.835,-1.3178],[29.8407,-1.3199],[29.8413,-1.3219],[29.8385,-1.3249],[29.8401,-1.3299],[29.8385,-1.3319],[29.8487,-1.3389],[29.848,-1.3407],[29.8502,-1.3453],[29.856,-1.3494],[29.8564,-1.3556],[29.8595,-1.3605],[29.869,-1.3551],[29.8789,-1.3555],[29.879,-1.3791],[29.8809,-1.3866],[29.8812,-1.405],[29.8855,-1.4125],[29.8836,-1.4144],[29.8833,-1.4226],[29.8853,-1.426],[29.8884,-1.4279],[29.8873,-1.4308],[29.8909,-1.4428],[29.8905,-1.4493],[29.8948,-1.4565],[29.8991,-1.4593],[29.9126,-1.4813],[29.9228,-1.4798],[29.9316,-1.4716],[29.9464,-1.4656],[29.9571,-1.4616],[29.9614,-1.4618],[29.9718,-1.4586],[29.9763,-1.459],[29.9767,-1.4566],[29.9827,-1.4511],[29.9931,-1.4469],[29.998,-1.4368],[30.0093,-1.4282],[30.0138,-1.4166],[30.0197,-1.4141],[30.0217,-1.4134],[30.0259,-1.4188],[30.0365,-1.4213],[30.0373,-1.4254],[30.0399,-1.4259],[30.0425,-1.4287],[30.0528,-1.432],[30.0555,-1.4217],[30.0534,-1.4176],[30.054,-1.4125],[30.0518,-1.4057],[30.0522,-1.4013],[30.0645,-1.3936],[30.0699,-1.392],[30.0708,-1.382],[30.0731,-1.3789],[30.0833,-1.3733],[30.0866,-1.3738],[30.0889,-1.3764],[30.0947,-1.3756],[30.0979,-1.3767],[30.1033,-1.3725],[30.1112,-1.3759],[30.1193,-1.3854],[30.121,-1.3836],[30.1239,-1.3833],[30.1254,-1.371],[30.128,-1.3645],[30.1379,-1.3611],[30.1396,-1.3554],[30.145,-1.3507],[30.1524,-1.3515],[30.1698,-1.3452],[30.1624,-1.3349],[30.1646,-1.3277],[30.1619,-1.3177],[30.1656,-1.3127],[30.1677,-1.3056],[30.1744,-1.3015],[30.1694,-1.2745],[30.1751,-1.2715],[30.1875,-1.2706],[30.1908,-1.2815],[30.1978,-1.2807],[30.1975,-1.2735],[30.2039,-1.2724],[30.2108,-1.2762],[30.213,-1.2707],[30.2193,-1.2649],[30.2211,-1.2602],[30.2264,-1.2553],[30.2305,-1.2535],[30.2349,-1.2466],[30.2427,-1.241],[30.2457,-1.233],[30.2527,-1.2252],[30.2541,-1.2204],[30.2661,-1.2124],[30.2756,-1.2103],[30.2776,-1.2068],[30.2781,-1.1986],[30.2847,-1.1961],[30.2923,-1.1896],[30.2912,-1.1863],[30.2932,-1.1815],[30.293,-1.1776],[30.2974,-1.1677],[30.2973,-1.1593],[30.2991,-1.1551],[30.3073,-1.1449],[30.3137,-1.1439],[30.323,-1.1376],[30.3281,-1.1365],[30.3367,-1.1312],[30.341,-1.1306],[30.3448,-1.1318],[30.3401,-1.1138],[30.3402,-1.1086],[30.3384,-1.1055],[30.341,-1.0928],[30.3432,-1.0916],[30.3441,-1.0891],[30.3488,-1.087],[30.349,-1.081],[30.3512,-1.0793],[30.3513,-1.0764],[30.3508,-1.0735],[30.349,-1.0738],[30.3488,-1.0727],[30.3494,-1.0701],[30.3526,-1.0688],[30.3511,-1.0673],[30.3529,-1.066],[30.3521,-1.063],[30.3545,-1.065],[30.3556,-1.0621],[30.3587,-1.0604],[30.3614,-1.065],[30.3657,-1.067],[30.3662,-1.0652],[30.3693,-1.065],[30.3699,-1.0677],[30.3727,-1.0696],[30.3749,-1.0681],[30.3723,-1.0657],[30.3758,-1.0636],[30.3766,-1.0611],[30.3862,-1.0678],[30.3868,-1.0662],[30.3897,-1.0675],[30.391,-1.0665],[30.3913,-1.0689],[30.3984,-1.0622],[30.3988,-1.0644],[30.4021,-1.0636],[30.4025,-1.0612],[30.4047,-1.0634],[30.4062,-1.0618],[30.4132,-1.0639],[30.4217,-1.0625],[30.4238,-1.065],[30.4283,-1.0646],[30.4304,-1.0629],[30.4305,-1.0585],[30.4346,-1.0576],[30.4329,-1.0565],[30.4345,-1.0529],[30.4358,-1.0549],[30.4379,-1.0529],[30.4388,-1.0487],[30.443,-1.0481],[30.4446,-1.0505],[30.4451,-1.0487],[30.4477,-1.05],[30.4476,-1.0475],[30.4497,-1.0497],[30.4502,-1.0487],[30.4566,-1.0502],[30.4599,-1.0533],[30.4668,-1.0525],[30.466,-1.0549],[30.4681,-1.0556],[30.4696,-1.0527],[30.4728,-1.0573],[30.4832,-1.0571],[30.4901,-1.0585],[30.4951,-1.0604],[30.5086,-1.0726],[30.5199,-1.0734],[30.5275,-1.0761],[30.5324,-1.074],[30.5397,-1.0747],[30.5491,-1.0686],[30.5555,-1.0682],[30.559,-1.0646],[30.5641,-1.067],[30.5687,-1.0642],[30.5781,-1.0637],[30.5867,-1.061],[30.5957,-1.0653],[30.6095,-1.0644],[30.6163,-1.0674],[30.6291,-1.0688],[30.6332,-1.0712],[30.6341,-1.07],[30.6322,-1.0673],[30.6332,-1.0665],[30.6493,-1.0659],[30.65,-1.0639],[30.659,-1.0623],[30.6614,-1.0591],[30.6615,-1.0565],[30.6643,-1.0566],[30.669,-1.0506],[30.6692,-1.0438],[30.6724,-1.0371],[30.678,-1.031],[30.6929,-1.0211],[30.6986,-1.015],[30.7178,-1.0141],[30.7263,-1.0092],[30.737,-1.0062],[30.7426,-1.0033],[30.7523,-0.9919],[30.7667,-0.9849],[30.775,-0.9866],[30.7991,-0.999],[31.0376,-0.9994],[31.0443,-1.0013],[31.0537,-0.9993],[31.2484,-0.9991],[31.4771,-1],[31.5585,-1.0016],[31.7568,-0.9994],[32.2018,-0.9999],[32.6817,-1],[33.0755,-0.9993],[33.658,-0.9991],[33.9296,-0.9958],[33.9293,-0.5397],[33.9327,-0.5191],[33.9361,-0.4626],[33.9412,-0.4214],[33.9719,-0.25],[33.9868,-0.1528],[33.9878,-0.1312],[33.9426,-0.0027],[33.9135,0.0969],[33.9107,0.0995],[33.9133,0.1085],[33.9729,0.189],[33.9976,0.2235],[34.0082,0.2408],[34.0158,0.2472],[34.0172,0.2506],[34.0227,0.2529],[34.0216,0.2579],[34.0249,0.263],[34.024,0.2671],[34.0258,0.2662],[34.0268,0.2678],[34.0273,0.2667],[34.0287,0.269],[34.0301,0.2667],[34.0317,0.2688],[34.0324,0.2677],[34.0339,0.2695],[34.0356,0.2692],[34.0357,0.2706],[34.0385,0.2703],[34.0382,0.2728],[34.0394,0.2728],[34.0426,0.2759],[34.0387,0.2788],[34.0399,0.2806],[34.0414,0.2799],[34.0395,0.2843],[34.0432,0.2856],[34.0414,0.2865],[34.0425,0.2875],[34.0397,0.2872],[34.0396,0.2883],[34.0425,0.2891],[34.0418,0.291],[34.0449,0.2898],[34.0454,0.2915],[34.0489,0.2916],[34.0495,0.2936],[34.0484,0.2943],[34.0507,0.2948],[34.049,0.3008],[34.0512,0.3041],[34.0524,0.3038],[34.0512,0.306],[34.0547,0.3063],[34.0613,0.3109],[34.059,0.3126],[34.0588,0.3185],[34.0569,0.3211],[34.0593,0.3225],[34.0608,0.321],[34.0626,0.3218],[34.0622,0.3232],[34.0646,0.3224],[34.0655,0.3235],[34.0727,0.3224],[34.0747,0.3246],[34.074,0.3259],[34.0755,0.3258],[34.0752,0.3276],[34.0759,0.3263],[34.0792,0.3292],[34.0817,0.3287],[34.0809,0.3301],[34.0825,0.3299],[34.0807,0.3322],[34.0828,0.3328],[34.0817,0.3345],[34.0847,0.3337],[34.0856,0.337],[34.0913,0.3404],[34.0901,0.3406],[34.091,0.3423],[34.0921,0.3418],[34.0923,0.3439],[34.093,0.3428],[34.0948,0.3435],[34.0945,0.3456],[34.0963,0.3445],[34.0998,0.3472],[34.0981,0.3522],[34.0993,0.352],[34.0993,0.3549],[34.1085,0.3674],[34.1094,0.3782],[34.1011,0.4112],[34.0908,0.4242],[34.0902,0.4365],[34.0923,0.4398],[34.0911,0.4488],[34.0889,0.4541],[34.0999,0.4659],[34.1041,0.4681],[34.1128,0.4768],[34.1201,0.4811],[34.1178,0.4885],[34.1177,0.4924],[34.1193,0.4947],[34.1176,0.5083],[34.1232,0.5136],[34.1234,0.5154],[34.1229,0.5171],[34.1168,0.5204],[34.1272,0.5373],[34.1282,0.5558],[34.1384,0.5829],[34.1428,0.5804],[34.1433,0.5815],[34.1447,0.5808],[34.1452,0.5834],[34.1473,0.5823],[34.1493,0.5855],[34.1536,0.5846],[34.1538,0.5885],[34.1571,0.5896],[34.1599,0.5935],[34.1609,0.5929],[34.1601,0.5941],[34.1625,0.5968],[34.1635,0.5954],[34.1646,0.5976],[34.1658,0.597],[34.1665,0.5999],[34.1714,0.5997],[34.1708,0.6018],[34.1724,0.6013],[34.1725,0.6026],[34.174,0.601],[34.1753,0.6054],[34.1764,0.6039],[34.1782,0.6065],[34.183,0.6052],[34.1836,0.6038],[34.1854,0.605],[34.1864,0.604],[34.1874,0.6068],[34.1845,0.6095],[34.1877,0.6108],[34.1876,0.612],[34.1896,0.6113],[34.1897,0.6136],[34.1915,0.6129],[34.1903,0.6159],[34.1923,0.6158],[34.1918,0.6198],[34.1932,0.6186],[34.1937,0.62],[34.1942,0.6179],[34.1964,0.6181],[34.196,0.6216],[34.1979,0.6248],[34.1991,0.6237],[34.2006,0.626],[34.2035,0.6219],[34.2062,0.6222],[34.2062,0.6253],[34.2077,0.6259],[34.2123,0.6224],[34.2142,0.6236],[34.2166,0.6219],[34.2176,0.6273],[34.2194,0.6276],[34.221,0.6301],[34.2223,0.629],[34.225,0.6296],[34.2296,0.6253],[34.2337,0.6277],[34.2364,0.6255],[34.2363,0.6269],[34.237,0.6261],[34.2382,0.6282],[34.2392,0.6271],[34.2406,0.6286],[34.2413,0.633],[34.2506,0.6285],[34.2579,0.6326],[34.2582,0.6344],[34.2613,0.6351],[34.2615,0.6369],[34.2678,0.6368],[34.2699,0.6395],[34.2722,0.6375],[34.2709,0.6398],[34.2726,0.6409],[34.2734,0.6389],[34.2738,0.6402],[34.2775,0.64],[34.2772,0.6425],[34.2797,0.6456],[34.2782,0.6467],[34.2797,0.6489],[34.2782,0.6513],[34.2793,0.6538],[34.2769,0.656],[34.28,0.6561],[34.2784,0.6611],[34.2805,0.6617],[34.2803,0.6643],[34.2815,0.6638],[34.2814,0.6661],[34.2794,0.6667],[34.2798,0.6685],[34.2781,0.6704],[34.2785,0.6789],[34.2837,0.682],[34.2856,0.6801],[34.2876,0.6802],[34.2897,0.6816],[34.2889,0.6828],[34.2939,0.6841],[34.2941,0.6861],[34.296,0.6846],[34.2948,0.6878],[34.2978,0.6878],[34.2989,0.6911],[34.3011,0.6899],[34.3037,0.6909],[34.3053,0.6931],[34.3043,0.6937],[34.3063,0.6952],[34.3069,0.6938],[34.3083,0.695],[34.3127,0.6942],[34.3124,0.6986],[34.3138,0.6985],[34.3132,0.6969],[34.3143,0.698],[34.3125,0.7025],[34.3089,0.7061],[34.3101,0.7066],[34.3107,0.7126],[34.308,0.7168],[34.3078,0.7217],[34.3099,0.7258],[34.3079,0.7292],[34.3117,0.7455],[34.3104,0.7475],[34.3122,0.7536],[34.3135,0.7537],[34.3132,0.7562],[34.3153,0.7577],[34.314,0.7589],[34.3147,0.7611],[34.3182,0.762],[34.3195,0.7648],[34.3232,0.7635],[34.3222,0.765],[34.3351,0.7657],[34.3385,0.7691],[34.3433,0.7689],[34.346,0.772],[34.3548,0.7712],[34.3545,0.7732],[34.3582,0.774],[34.3593,0.7757],[34.3617,0.7739],[34.3648,0.7789],[34.3672,0.7795],[34.3677,0.7783],[34.3732,0.7833],[34.3725,0.7879],[34.3749,0.7886],[34.3769,0.7936],[34.3797,0.7952],[34.3814,0.79],[34.3839,0.7902],[34.3843,0.7985],[34.3857,0.8008],[34.3921,0.803],[34.3919,0.8008],[34.3941,0.8008],[34.395,0.8023],[34.3954,0.7996],[34.4141,0.8076],[34.4146,0.8094],[34.411,0.8134],[34.4141,0.8154],[34.4143,0.8171],[34.4101,0.8197],[34.409,0.8249],[34.4066,0.8246],[34.4064,0.8261],[34.409,0.8274],[34.4099,0.8298],[34.4161,0.8325],[34.4144,0.8342],[34.415,0.8398],[34.4179,0.8395],[34.4214,0.8431],[34.4213,0.8473],[34.4227,0.8469],[34.4233,0.8484],[34.4306,0.852],[34.4408,0.8539],[34.4469,0.8607],[34.4479,0.8657],[34.4471,0.8742],[34.4524,0.8884],[34.4512,0.8976],[34.4571,0.9008],[34.4594,0.9052],[34.4652,0.9092],[34.4799,0.9348],[34.4835,0.9583],[34.4901,0.9801],[34.4887,0.9866],[34.4893,0.9955],[34.4877,0.9978],[34.4939,1.04],[34.4978,1.0515],[34.5005,1.055],[34.4997,1.0591],[34.5024,1.0631],[34.5033,1.0677],[34.509,1.0748],[34.5143,1.0785],[34.5183,1.0857],[34.5211,1.0965],[34.523,1.0994],[34.527,1.1014],[34.527,1.1041],[34.5752,1.0995],[34.5801,1.1474],[34.6114,1.1559],[34.621,1.1647],[34.6365,1.1688],[34.6415,1.1732],[34.6492,1.1761],[34.6559,1.1811],[34.6575,1.1849],[34.6641,1.1894],[34.6695,1.205],[34.696,1.2104],[34.7015,1.2131],[34.7112,1.2124],[34.7209,1.2149],[34.7407,1.2164],[34.7433,1.2182],[34.7509,1.217],[34.7588,1.2188],[34.7694,1.2159],[34.7741,1.2201],[34.7789,1.2191],[34.7837,1.2218],[34.7868,1.2195],[34.7951,1.2191],[34.7996,1.2242],[34.8067,1.2287],[34.8081,1.2335],[34.8123,1.2374],[34.8114,1.2409],[34.8135,1.2452],[34.8191,1.2479],[34.8185,1.2529],[34.8206,1.2602],[34.8256,1.2618],[34.8323,1.2683],[34.8298,1.2722],[34.8291,1.2838],[34.829,1.2943],[34.8308,1.3009],[34.8294,1.3078],[34.8095,1.3327],[34.7917,1.3594],[34.7875,1.3636],[34.8073,1.3811],[34.805,1.3914],[34.8,1.4015],[34.7952,1.4076],[34.795,1.4119],[34.8016,1.4205],[34.8182,1.4289],[34.8277,1.4452],[34.8318,1.4491],[34.8425,1.4518],[34.845,1.4544],[34.8648,1.5256],[34.8669,1.5279],[34.891,1.5526],[34.9074,1.5503],[34.9243,1.5598],[34.9444,1.5739],[34.9697,1.6172],[34.9923,1.6636],[34.9976,1.729],[35.0011,1.7558],[35.001,1.9597],[34.9853,1.9825],[34.9808,2.0493],[34.9463,2.2086],[34.9185,2.3874],[34.9205,2.3908],[34.9159,2.3938],[34.9151,2.4002],[34.9179,2.4072],[34.9174,2.422],[34.9203,2.4217],[34.923,2.424],[34.9268,2.4245],[34.9263,2.426],[34.9306,2.4261],[34.9331,2.4282],[34.9322,2.4363],[34.9366,2.4353],[34.9383,2.4377],[34.9374,2.441],[34.9412,2.4454],[34.9406,2.4473],[34.9445,2.4465],[34.9429,2.4502],[34.9456,2.4524],[34.9469,2.4512],[34.9547,2.4552],[34.9533,2.4585],[34.9557,2.4658],[34.9542,2.4683],[34.9552,2.4697],[34.9493,2.4695],[34.9375,2.4972],[34.9338,2.5132],[34.9138,2.5139],[34.9059,2.5446],[34.8981,2.5853],[34.8946,2.5902],[34.8813,2.5867],[34.8791,2.5697],[34.869,2.5679],[34.8529,2.5809],[34.8393,2.6015],[34.8324,2.6182],[34.7999,2.6531],[34.7912,2.6807],[34.7762,2.6952],[34.7849,2.7458],[34.7843,2.7525],[34.7789,2.7676],[34.7761,2.7851],[34.768,2.7998],[34.7677,2.8085],[34.7629,2.8182],[34.7558,2.8257],[34.7527,2.8231],[34.7499,2.8235],[34.7371,2.8523],[34.7134,2.862],[34.7091,2.8707],[34.7025,2.875],[34.6931,2.8602],[34.6857,2.8614],[34.6692,2.8604],[34.6537,2.8649],[34.6401,2.904],[34.5996,2.9223],[34.5895,2.9794],[34.5881,3.0011],[34.5851,3.0079],[34.5773,3.0178],[34.5765,3.0325],[34.5735,3.0474],[34.5756,3.0662],[34.5731,3.0887],[34.5634,3.1048],[34.5597,3.1077],[34.5466,3.1338],[34.5128,3.1461],[34.4956,3.1387],[34.4895,3.1526],[34.4828,3.1624],[34.4713,3.1699],[34.4613,3.1712],[34.4562,3.1793],[34.4482,3.2803],[34.4388,3.3047],[34.4307,3.34],[34.4014,3.3679],[34.4025,3.4124],[34.4106,3.4154],[34.42,3.4307],[34.4174,3.448],[34.4046,3.4673],[34.3917,3.4803],[34.3897,3.4891],[34.3918,3.4901],[34.3968,3.4853],[34.4255,3.489],[34.4404,3.5016],[34.4523,3.5144],[34.4574,3.5728],[34.4539,3.6085],[34.464,3.6668],[34.4566,3.6736],[34.4228,3.6859],[34.4057,3.6901],[34.4036,3.7026],[34.395,3.7151],[34.3831,3.7248],[34.3658,3.7325],[34.3552,3.7325],[34.3263,3.7254],[34.3193,3.719],[34.3061,3.6833],[34.3034,3.6829],[34.3072,3.6947],[34.3087,3.709],[34.2982,3.7184],[34.2841,3.7281],[34.2672,3.7456],[34.2587,3.7638],[34.2463,3.7812],[34.2339,3.7781],[34.2297,3.7714],[34.2276,3.7714],[34.2268,3.7799],[34.2211,3.7815],[34.1866,3.7682],[34.1716,3.765],[34.1668,3.7708],[34.1909,3.7801],[34.189,3.7876],[34.1894,3.7924],[34.1713,3.7976],[34.1642,3.795],[34.1598,3.7987],[34.1545,3.7973],[34.1539,3.8043],[34.159,3.8048],[34.1647,3.8078],[34.1694,3.8156],[34.1808,3.8289],[34.2268,3.8283],[34.2258,3.8494],[34.2163,3.8782],[34.2053,3.8794],[34.1758,3.877],[34.1715,3.8739],[34.1677,3.8672],[34.1534,3.8661],[34.1286,3.8695],[34.1102,3.8657],[34.0934,3.8572],[34.0892,3.8586],[34.0922,3.8826],[34.1171,3.8948],[34.1207,3.8982],[34.1349,3.9527],[34.1354,3.9587],[34.1065,3.974],[34.0829,3.9996],[34.0608,4.0068],[34.0596,4.025],[34.0884,4.0339],[34.0921,4.0464],[34.0924,4.0586],[34.0805,4.0828],[34.0639,4.0915],[34.0503,4.1184],[34.0664,4.1413],[34.0481,4.1765],[33.9885,4.2314],[33.8498,4.0918],[33.5153,3.7522],[33.488,3.7513],[33.1796,3.7761],[33.0824,3.8502],[33.0718,3.8564],[33.0634,3.8646],[33.0285,3.8909],[32.9019,3.8129],[32.721,3.7651],[32.416,3.7429],[32.1979,3.5978],[32.1956,3.5947],[32.2033,3.5905],[32.2075,3.592],[32.2098,3.5893],[32.2118,3.5805],[32.2152,3.5739],[32.2145,3.5669],[32.2187,3.5615],[32.2091,3.5473],[32.208,3.5419],[32.2091,3.5376],[32.2041,3.528],[32.2022,3.5206],[32.2027,3.505],[32.20092535286303,3.504309859477965],[32.1032,3.5294],[32.0851,3.5301],[32.0841,3.5362],[32.0862,3.5356],[32.0876,3.533],[32.0898,3.535],[32.087,3.5421],[32.0892,3.5462],[32.0868,3.5466],[32.0849,3.5446],[32.0828,3.5457],[32.084,3.548],[32.0818,3.5514],[32.0819,3.5561],[32.0867,3.5597],[32.0839,3.5609],[32.0812,3.5592],[32.0815,3.565],[32.0784,3.5654],[32.0768,3.5676],[32.073,3.5664],[32.0736,3.571],[32.0688,3.5721],[32.0708,3.5756],[32.067,3.5744],[32.0624,3.5801]],[[31.014394117631745,2.754405882353741],[31.0143,2.7511],[31.01046551556982,2.747168964087111],[31.0142,2.7511],[31.014394117631745,2.754405882353741]],[[31.1222,1.4521],[31.1264,1.4512],[31.128,1.4494],[31.1222,1.4521]],[[31.2459,3.0926],[31.2459,3.0968],[31.2489,3.0983],[31.246,3.0968],[31.2459,3.0926]],[[32.50620000015745,3.163900000125956],[32.5079,3.1644],[32.5112,3.1609],[32.5082,3.1639],[32.50620000015745,3.163900000125956]],[[32.4702,3.1254],[32.471,3.1225],[32.4733,3.1208],[32.4709,3.1224],[32.4702,3.1254]],[[32.8596,2.3245],[32.8628,2.3253],[32.8665,2.3241],[32.8596,2.3245]],[[30.2442,0.7473],[30.2452,0.7482],[30.2419,0.749],[30.2453,0.7482],[30.2442,0.7473]],[[31.763799990659876,-0.740699995532984],[31.7513,-0.7343],[31.744,-0.7279],[31.7286,-0.7107],[31.723236363639543,-0.701154545462807],[31.7259,-0.7032],[31.7296,-0.7112],[31.7451,-0.7284],[31.7524,-0.7348],[31.763799990659876,-0.740699995532984]],[[31.722599999983995,-0.700799999993597],[31.7201,-0.6981],[31.7174,-0.6897],[31.7181,-0.683500000004164],[31.7192,-0.6839],[31.7185,-0.6902],[31.722599999983995,-0.700799999993597]],[[31.716814285711482,-0.682971428572828],[31.7148,-0.6813],[31.7165,-0.6779],[31.7107,-0.6694],[31.7104,-0.6651],[31.707342857140148,-0.660014285714737],[31.7115,-0.6656],[31.7115,-0.6694],[31.7177,-0.6787],[31.716,-0.6811],[31.716814285711482,-0.682971428572828]],[[31.70377999998746,-0.659600000003375],[31.6999,-0.6567],[31.6808,-0.6269],[31.6796,-0.6197],[31.6763,-0.6123],[31.6763,-0.6038],[31.6789,-0.5932],[31.687272727291138,-0.583672727292391],[31.6881,-0.5849],[31.6794,-0.5951],[31.677,-0.6113],[31.6809,-0.6211],[31.6808,-0.6255],[31.701,-0.6573],[31.70377999998746,-0.659600000003375]],[[31.68393333336803,-0.582566666737848],[31.6827,-0.5813],[31.6868,-0.5631],[31.691,-0.5558],[31.6924,-0.5575],[31.6879,-0.5636],[31.68393333336803,-0.582566666737848]],[[31.689327550864462,-0.555195918366218],[31.6843,-0.5517],[31.6838,-0.5476],[31.7082,-0.5331],[31.7,-0.5269],[31.7092,-0.5336],[31.6848,-0.5481],[31.6849,-0.5515],[31.689327550864462,-0.555195918366218]],[[31.68164285719769,-0.522814285767421],[31.6789,-0.5207],[31.676642857118825,-0.515742857157762],[31.68164285719769,-0.522814285767421]],[[31.668363157886517,-0.515210526320366],[31.6579,-0.4985],[31.6589,-0.492],[31.6634,-0.488],[31.6656,-0.483],[31.6668,-0.4592],[31.6679,-0.4597],[31.6677,-0.4755],[31.6663,-0.485],[31.6603,-0.4919],[31.659,-0.499],[31.668363157886517,-0.515210526320366]],[[33.2817,0.4535],[33.2815,0.4626],[33.2834,0.4733],[33.2817,0.4535]],[[33.21,0.6819],[33.2017,0.686],[33.2016,0.6877],[33.2017,0.6861],[33.21,0.6819]],[[31.9445,2.7935],[31.9413,2.7956],[31.9375,2.7956],[31.9413,2.7957],[31.9445,2.7935]]]},"properties":{"name":"Uganda"}}
]}